{
  "type": "FeatureCollection",
  "features": [
    {
      "type": "Feature",
      "properties": {
        "norad_id": 32314,
        "name": "FENGYUN 1C DEB",
        "group": "fengyun-1c-debris",
        "lat": -80.93532635187604,
        "lon": -177.27367878994053,
        "alt_km": 728.0897800708572,
        "timestamp": "2025-12-24T11:33:00.303469+00:00",
        "meta_object_name": "FENGYUN 1C DEB",
        "meta_object_id": "1999-025CXF",
        "meta_epoch": "2025-12-24T00:35:54.225024",
        "meta_mean_motion": 14.79780082,
        "meta_eccentricity": 0.0148536,
        "meta_inclination": 98.8637,
        "meta_ra_of_asc_node": 104.2292,
        "meta_arg_of_pericenter": 122.2161,
        "meta_mean_anomaly": 239.3548,
        "meta_ephemeris_type": 0,
        "meta_classification_type": "U",
        "meta_norad_cat_id": 32314,
        "meta_element_set_no": 999,
        "meta_rev_at_epoch": 97597,
        "meta_bstar": 0.0012678,
        "meta_mean_motion_dot": 0.00011459,
        "meta_mean_motion_ddot": 0,
        "tle_line1": "1 32314U 99025CXF 25358.02493316  .00011459  00000+0  12678-2 0  9994",
        "tle_line2": "2 32314  98.8637 104.2292 0148536 122.2161 239.3548 14.79780082975975"
      },
      "geometry": {
        "type": "Point",
        "coordinates": [
          -177.27367878994053,
          -80.93532635187604
        ]
      }
    },
    {
      "type": "Feature",
      "properties": {
        "norad_id": 32316,
        "name": "FENGYUN 1C DEB",
        "group": "fengyun-1c-debris",
        "lat": -12.313082994603613,
        "lon": -155.59456632948803,
        "alt_km": 727.1138265992167,
        "timestamp": "2025-12-24T11:33:00.303479+00:00",
        "meta_object_name": "FENGYUN 1C DEB",
        "meta_object_id": "1999-025CXH",
        "meta_epoch": "2025-12-24T00:52:48.327744",
        "meta_mean_motion": 14.52010165,
        "meta_eccentricity": 0.0026411,
        "meta_inclination": 99.5284,
        "meta_ra_of_asc_node": 26.0027,
        "meta_arg_of_pericenter": 295.0874,
        "meta_mean_anomaly": 94.9479,
        "meta_ephemeris_type": 0,
        "meta_classification_type": "U",
        "meta_norad_cat_id": 32316,
        "meta_element_set_no": 999,
        "meta_rev_at_epoch": 95941,
        "meta_bstar": 0.0017914,
        "meta_mean_motion_dot": 7.221e-05,
        "meta_mean_motion_ddot": 0,
        "tle_line1": "1 32316U 99025CXH 25358.03667046  .00007221  00000+0  17914-2 0  9990",
        "tle_line2": "2 32316  99.5284  26.0027 0026411 295.0874  94.9479 14.52010165959415"
      },
      "geometry": {
        "type": "Point",
        "coordinates": [
          -155.59456632948803,
          -12.313082994603613
        ]
      }
    },
    {
      "type": "Feature",
      "properties": {
        "norad_id": 32320,
        "name": "FENGYUN 1C DEB",
        "group": "fengyun-1c-debris",
        "lat": 19.68379321586105,
        "lon": 41.69820613189946,
        "alt_km": 803.886343028089,
        "timestamp": "2025-12-24T11:33:00.303490+00:00",
        "meta_object_name": "FENGYUN 1C DEB",
        "meta_object_id": "1999-025CXM",
        "meta_epoch": "2025-12-22T13:40:01.485696",
        "meta_mean_motion": 14.36184874,
        "meta_eccentricity": 0.00563271,
        "meta_inclination": 100.3743,
        "meta_ra_of_asc_node": 215.6434,
        "meta_arg_of_pericenter": 20.562,
        "meta_mean_anomaly": 339.7809,
        "meta_ephemeris_type": 0,
        "meta_classification_type": "U",
        "meta_norad_cat_id": 32320,
        "meta_element_set_no": 999,
        "meta_rev_at_epoch": 62314,
        "meta_bstar": 0.00080066541,
        "meta_mean_motion_dot": 2.318e-05,
        "meta_mean_motion_ddot": 0,
        "tle_line1": "1 32320U 99025CXM 25356.56946164  .00002318  00000+0  80067-3 0  9994",
        "tle_line2": "2 32320 100.3743 215.6434 0056327  20.5620 339.7809 14.36184874623144"
      },
      "geometry": {
        "type": "Point",
        "coordinates": [
          41.69820613189946,
          19.68379321586105
        ]
      }
    },
    {
      "type": "Feature",
      "properties": {
        "norad_id": 32322,
        "name": "FENGYUN 1C DEB",
        "group": "fengyun-1c-debris",
        "lat": -75.85719260948173,
        "lon": 22.732928487871643,
        "alt_km": 1447.804895135212,
        "timestamp": "2025-12-24T11:33:00.303500+00:00",
        "meta_object_name": "FENGYUN 1C DEB",
        "meta_object_id": "1999-025CXP",
        "meta_epoch": "2025-12-21T10:17:00.184704",
        "meta_mean_motion": 13.34155768,
        "meta_eccentricity": 0.04195743,
        "meta_inclination": 98.3703,
        "meta_ra_of_asc_node": 235.9789,
        "meta_arg_of_pericenter": 75.736,
        "meta_mean_anomaly": 288.998,
        "meta_ephemeris_type": 0,
        "meta_classification_type": "U",
        "meta_norad_cat_id": 32322,
        "meta_element_set_no": 999,
        "meta_rev_at_epoch": 60495,
        "meta_bstar": 0.0012702386,
        "meta_mean_motion_dot": 1.01e-05,
        "meta_mean_motion_ddot": 0,
        "tle_line1": "1 32322U 99025CXP 25355.42847436  .00001010  00000+0  12702-2 0  9990",
        "tle_line2": "2 32322  98.3703 235.9789 0419574  75.7360 288.9980 13.34155768604956"
      },
      "geometry": {
        "type": "Point",
        "coordinates": [
          22.732928487871643,
          -75.85719260948173
        ]
      }
    },
    {
      "type": "Feature",
      "properties": {
        "norad_id": 32323,
        "name": "FENGYUN 1C DEB",
        "group": "fengyun-1c-debris",
        "lat": -36.5022280829765,
        "lon": -45.52500445577186,
        "alt_km": 823.0491070906155,
        "timestamp": "2025-12-24T11:33:00.303511+00:00",
        "meta_object_name": "FENGYUN 1C DEB",
        "meta_object_id": "1999-025CXQ",
        "meta_epoch": "2025-12-19T15:19:13.533312",
        "meta_mean_motion": 13.96612746,
        "meta_eccentricity": 0.015623,
        "meta_inclination": 98.5704,
        "meta_ra_of_asc_node": 136.3682,
        "meta_arg_of_pericenter": 190.9743,
        "meta_mean_anomaly": 168.7999,
        "meta_ephemeris_type": 0,
        "meta_classification_type": "U",
        "meta_norad_cat_id": 32323,
        "meta_element_set_no": 999,
        "meta_rev_at_epoch": 60366,
        "meta_bstar": 0.0022503,
        "meta_mean_motion_dot": 3.415e-05,
        "meta_mean_motion_ddot": 0,
        "tle_line1": "1 32323U 99025CXQ 25353.63835108  .00003415  00000+0  22503-2 0  9996",
        "tle_line2": "2 32323  98.5704 136.3682 0156230 190.9743 168.7999 13.96612746603662"
      },
      "geometry": {
        "type": "Point",
        "coordinates": [
          -45.52500445577186,
          -36.5022280829765
        ]
      }
    },
    {
      "type": "Feature",
      "properties": {
        "norad_id": 32324,
        "name": "FENGYUN 1C DEB",
        "group": "fengyun-1c-debris",
        "lat": -26.13426311061923,
        "lon": -83.81860382829731,
        "alt_km": 897.1897726299576,
        "timestamp": "2025-12-24T11:33:00.303521+00:00",
        "meta_object_name": "FENGYUN 1C DEB",
        "meta_object_id": "1999-025CXR",
        "meta_epoch": "2025-12-23T00:29:25.844928",
        "meta_mean_motion": 14.09163442,
        "meta_eccentricity": 0.00496661,
        "meta_inclination": 99.5328,
        "meta_ra_of_asc_node": 99.3661,
        "meta_arg_of_pericenter": 355.3923,
        "meta_mean_anomaly": 4.6781,
        "meta_ephemeris_type": 0,
        "meta_classification_type": "U",
        "meta_norad_cat_id": 32324,
        "meta_element_set_no": 999,
        "meta_rev_at_epoch": 64143,
        "meta_bstar": 0.00047218349,
        "meta_mean_motion_dot": 7.8e-06,
        "meta_mean_motion_ddot": 0,
        "tle_line1": "1 32324U 99025CXR 25357.02043802  .00000780  00000+0  47218-3 0  9999",
        "tle_line2": "2 32324  99.5328  99.3661 0049666 355.3923   4.6781 14.09163442641435"
      },
      "geometry": {
        "type": "Point",
        "coordinates": [
          -83.81860382829731,
          -26.13426311061923
        ]
      }
    },
    {
      "type": "Feature",
      "properties": {
        "norad_id": 32326,
        "name": "FENGYUN 1C DEB",
        "group": "fengyun-1c-debris",
        "lat": -35.02783855786319,
        "lon": 100.49139559169011,
        "alt_km": 1083.4095487449704,
        "timestamp": "2025-12-24T11:33:00.303531+00:00",
        "meta_object_name": "FENGYUN 1C DEB",
        "meta_object_id": "1999-025CXT",
        "meta_epoch": "2025-12-21T01:52:21.182880",
        "meta_mean_motion": 13.69292116,
        "meta_eccentricity": 0.03867691,
        "meta_inclination": 98.4887,
        "meta_ra_of_asc_node": 283.4918,
        "meta_arg_of_pericenter": 117.0744,
        "meta_mean_anomaly": 247.0417,
        "meta_ephemeris_type": 0,
        "meta_classification_type": "U",
        "meta_norad_cat_id": 32326,
        "meta_element_set_no": 999,
        "meta_rev_at_epoch": 63296,
        "meta_bstar": 0.00039414066,
        "meta_mean_motion_dot": 5.46e-06,
        "meta_mean_motion_ddot": 0,
        "tle_line1": "1 32326U 99025CXT 25355.07802295  .00000546  00000+0  39414-3 0  9992",
        "tle_line2": "2 32326  98.4887 283.4918 0386769 117.0744 247.0417 13.69292116632961"
      },
      "geometry": {
        "type": "Point",
        "coordinates": [
          100.49139559169011,
          -35.02783855786319
        ]
      }
    }
  ]
}